{
    "links": {
        "self": "http://www.neowsapp.com/rest/v1/neo/3685815?api_key=iIulBulltgU6a56xZRHN4H3l9WmuAYTsLGpBGhQ2"
    },
    "id": "3685815",
    "neo_reference_id": "3685815",
    "name": "(2014 RD11)",
    "designation": "2014 RD11",
    "nasa_jpl_url": "http://ssd.jpl.nasa.gov/sbdb.cgi?sstr=3685815",
    "absolute_magnitude_h": 22.8,
    "estimated_diameter": {
        "kilometers": {
            "estimated_diameter_min": 0.0732073989,
            "estimated_diameter_max": 0.1636967205
        },
        "meters": {
            "estimated_diameter_min": 73.2073989347,
            "estimated_diameter_max": 163.696720474
        },
        "miles": {
            "estimated_diameter_min": 0.0454889547,
            "estimated_diameter_max": 0.1017163949
        },
        "feet": {
            "estimated_diameter_min": 240.181762721,
            "estimated_diameter_max": 537.0627483999
        }
    },
    "is_potentially_hazardous_asteroid": false,
    "close_approach_data": [
        {
            "close_approach_date": "2012-07-11",
            "close_approach_date_full": "2012-Jul-11 21:50",
            "epoch_date_close_approach": 1342043400000,
            "relative_velocity": {
                "kilometers_per_second": "7.2917245301",
                "kilometers_per_hour": "26250.2083083834",
                "miles_per_hour": "16310.8586013953"
            },
            "miss_distance": {
                "astronomical": "0.5003774059",
                "lunar": "194.6468108951",
                "kilometers": "74855394.118765433",
                "miles": "46512985.0696236554"
            },
            "orbiting_body": "Juptr"
        },
        {
            "close_approach_date": "2014-08-19",
            "close_approach_date_full": "2014-Aug-19 17:55",
            "epoch_date_close_approach": 1408470900000,
            "relative_velocity": {
                "kilometers_per_second": "22.4321179142",
                "kilometers_per_hour": "80755.624491052",
                "miles_per_hour": "50178.4045622317"
            },
            "miss_distance": {
                "astronomical": "0.0525701152",
                "lunar": "20.4497748128",
                "kilometers": "7864377.259574624",
                "miles": "4886697.4299288512"
            },
            "orbiting_body": "Earth"
        },
        {
            "close_approach_date": "2024-03-26",
            "close_approach_date_full": "2024-Mar-26 11:45",
            "epoch_date_close_approach": 1711453500000,
            "relative_velocity": {
                "kilometers_per_second": "8.3670671931",
                "kilometers_per_hour": "30121.4418951896",
                "miles_per_hour": "18716.2926042638"
            },
            "miss_distance": {
                "astronomical": "0.8184184203",
                "lunar": "318.3647654967",
                "kilometers": "122433652.445644761",
                "miles": "76076743.9042332618"
            },
            "orbiting_body": "Juptr"
        }
    ],
    "orbital_data": {
        "orbit_id": "7",
        "orbit_determination_date": "2017-04-06 08:38:47",
        "first_observation_date": "2014-09-01",
        "last_observation_date": "2014-09-19",
        "data_arc_in_days": 18,
        "observations_used": 28,
        "orbit_uncertainty": "8",
        "minimum_orbit_intersection": ".0306575",
        "jupiter_tisserand_invariant": "2.901",
        "epoch_osculation": "2456911.5",
        "eccentricity": ".781738732967291",
        "semi_major_axis": "2.567970917937159",
        "inclination": "2.840994266375615",
        "ascending_node_longitude": "7.639042724400984",
        "orbital_period": "1503.085130447253",
        "perihelion_distance": ".560488586252113",
        "perihelion_argument": "230.1992108293874",
        "aphelion_distance": "4.575453249622204",
        "perihelion_time": "2456843.775317871868",
        "mean_anomaly": "16.22056201093069",
        "mean_motion": ".2395073923011131",
        "equinox": "J2000",
        "orbit_class": {
            "orbit_class_type": "APO",
            "orbit_class_description": "Near-Earth asteroid orbits which cross the Earth’s orbit similar to that of 1862 Apollo",
            "orbit_class_range": "a (semi-major axis) > 1.0 AU; q (perihelion) < 1.017 AU"
        }
    },
    "is_sentry_object": false
}